[
  {
    "OBJECT_NAME": "STARLINK-5509",
    "OBJECT_ID": "23094AX",
    "EPOCH": "2025-11-11T07:13:58.494144",
    "MEAN_MOTION": 15.02541131,
    "ECCENTRICITY": 0.0001096,
    "INCLINATION": 43.0048,
    "RA_OF_ASC_NODE": 313.4151,
    "ARG_OF_PERICENTER": 276.395,
    "MEAN_ANOMALY": 83.6768,
    "EPHEMERIS_TYPE": 0,
    "CLASSIFICATION_TYPE": "U",
    "NORAD_CAT_ID": 57263,
    "ELEMENT_SET_NO": 999,
    "REV_AT_EPOCH": 12931,
    "BSTAR": 0.00023476,
    "MEAN_MOTION_DOT": 2.969e-05,
    "MEAN_MOTION_DDOT": 0.0,
    "TLE_LINE1": "1 57263U 23094AX  25315.30137146  .00002969  00000+0  23476-3 0  9992",
    "TLE_LINE2": "2 57263  43.0048 313.4151 0001096 276.3950  83.6768 15.02541131129317",
    "COMMENT": "Grouped by shell and plane from TLE"
  },
  {
    "OBJECT_NAME": "STARLINK-30568",
    "OBJECT_ID": "23158A",
    "EPOCH": "2025-11-11T01:32:38.485248",
    "MEAN_MOTION": 15.02538671,
    "ECCENTRICITY": 0.0001381,
    "INCLINATION": 43.005,
    "RA_OF_ASC_NODE": 315.1961,
    "ARG_OF_PERICENTER": 266.6584,
    "MEAN_ANOMALY": 93.4101,
    "EPHEMERIS_TYPE": 0,
    "CLASSIFICATION_TYPE": "U",
    "NORAD_CAT_ID": 58051,
    "ELEMENT_SET_NO": 999,
    "REV_AT_EPOCH": 11568,
    "BSTAR": 5.1174e-05,
    "MEAN_MOTION_DOT": 4.88e-06,
    "MEAN_MOTION_DDOT": 0.0,
    "TLE_LINE1": "1 58051U 23158A   25315.06433432  .00000488  00000+0  51174-4 0  9990",
    "TLE_LINE2": "2 58051  43.0050 315.1961 0001381 266.6584  93.4101 15.02538671115686",
    "COMMENT": "Grouped by shell and plane from TLE"
  },
  {
    "OBJECT_NAME": "STARLINK-30575",
    "OBJECT_ID": "23158B",
    "EPOCH": "2025-11-11T06:29:24.695808",
    "MEAN_MOTION": 15.0253982,
    "ECCENTRICITY": 0.0001216,
    "INCLINATION": 43.0041,
    "RA_OF_ASC_NODE": 314.1655,
    "ARG_OF_PERICENTER": 275.6244,
    "MEAN_ANOMALY": 84.446,
    "EPHEMERIS_TYPE": 0,
    "CLASSIFICATION_TYPE": "U",
    "NORAD_CAT_ID": 58052,
    "ELEMENT_SET_NO": 999,
    "REV_AT_EPOCH": 11571,
    "BSTAR": 0.00012205000000000001,
    "MEAN_MOTION_DOT": 1.446e-05,
    "MEAN_MOTION_DDOT": 0.0,
    "TLE_LINE1": "1 58052U 23158B   25315.27042472  .00001446  00000+0  12205-3 0  9990",
    "TLE_LINE2": "2 58052  43.0041 314.1655 0001216 275.6244  84.4460 15.02539820115715",
    "COMMENT": "Grouped by shell and plane from TLE"
  },
  {
    "OBJECT_NAME": "STARLINK-30577",
    "OBJECT_ID": "23158C",
    "EPOCH": "2025-11-11T01:27:50.768064",
    "MEAN_MOTION": 15.02537813,
    "ECCENTRICITY": 0.0001191,
    "INCLINATION": 43.0042,
    "RA_OF_ASC_NODE": 315.1565,
    "ARG_OF_PERICENTER": 273.5595,
    "MEAN_ANOMALY": 86.5111,
    "EPHEMERIS_TYPE": 0,
    "CLASSIFICATION_TYPE": "U",
    "NORAD_CAT_ID": 58053,
    "ELEMENT_SET_NO": 999,
    "REV_AT_EPOCH": 11568,
    "BSTAR": 5.1806e-05,
    "MEAN_MOTION_DOT": 4.96e-06,
    "MEAN_MOTION_DDOT": 0.0,
    "TLE_LINE1": "1 58053U 23158C   25315.06100426  .00000496  00000+0  51806-4 0  9997",
    "TLE_LINE2": "2 58053  43.0042 315.1565 0001191 273.5595  86.5111 15.02537813115688",
    "COMMENT": "Grouped by shell and plane from TLE"
  },
  {
    "OBJECT_NAME": "STARLINK-30566",
    "OBJECT_ID": "23158D",
    "EPOCH": "2025-11-11T01:18:15.173856",
    "MEAN_MOTION": 15.02516902,
    "ECCENTRICITY": 0.0001026,
    "INCLINATION": 43.0052,
    "RA_OF_ASC_NODE": 315.1233,
    "ARG_OF_PERICENTER": 242.7886,
    "MEAN_ANOMALY": 117.2852,
    "EPHEMERIS_TYPE": 0,
    "CLASSIFICATION_TYPE": "U",
    "NORAD_CAT_ID": 58054,
    "ELEMENT_SET_NO": 999,
    "REV_AT_EPOCH": 11568,
    "BSTAR": 0.0,
    "MEAN_MOTION_DOT": -0.00087853,
    "MEAN_MOTION_DDOT": 0.0,
    "TLE_LINE1": "1 58054U 23158D   25315.05434229 -.00087853  00000+0 -65735-2 0  9996",
    "TLE_LINE2": "2 58054  43.0052 315.1233 0001026 242.7886 117.2852 15.02516902115680",
    "COMMENT": "Grouped by shell and plane from TLE"
  },
  {
    "OBJECT_NAME": "STARLINK-30544",
    "OBJECT_ID": "23158E",
    "EPOCH": "2025-11-11T07:17:12.194304",
    "MEAN_MOTION": 15.02531474,
    "ECCENTRICITY": 9.75e-05,
    "INCLINATION": 43.0041,
    "RA_OF_ASC_NODE": 313.5529,
    "ARG_OF_PERICENTER": 269.1759,
    "MEAN_ANOMALY": 90.8972,
    "EPHEMERIS_TYPE": 0,
    "CLASSIFICATION_TYPE": "U",
    "NORAD_CAT_ID": 58055,
    "ELEMENT_SET_NO": 999,
    "REV_AT_EPOCH": 11572,
    "BSTAR": 2.9301e-05,
    "MEAN_MOTION_DOT": 1.92e-06,
    "MEAN_MOTION_DDOT": 0.0,
    "TLE_LINE1": "1 58055U 23158E   25315.30361336  .00000192  00000+0  29301-4 0  9993",
    "TLE_LINE2": "2 58055  43.0041 313.5529 0000975 269.1759  90.8972 15.02531474115728",
    "COMMENT": "Grouped by shell and plane from TLE"
  },
  {
    "OBJECT_NAME": "STARLINK-30553",
    "OBJECT_ID": "23158F",
    "EPOCH": "2025-11-11T07:31:34.180320",
    "MEAN_MOTION": 15.02556696,
    "ECCENTRICITY": 0.0001972,
    "INCLINATION": 43.003,
    "RA_OF_ASC_NODE": 313.6274,
    "ARG_OF_PERICENTER": 287.1256,
    "MEAN_ANOMALY": 72.9371,
    "EPHEMERIS_TYPE": 0,
    "CLASSIFICATION_TYPE": "U",
    "NORAD_CAT_ID": 58056,
    "ELEMENT_SET_NO": 999,
    "REV_AT_EPOCH": 11572,
    "BSTAR": 0.00048262,
    "MEAN_MOTION_DOT": 6.325e-05,
    "MEAN_MOTION_DDOT": 0.0,
    "TLE_LINE1": "1 58056U 23158F   25315.31359005  .00006325  00000+0  48262-3 0  9995",
    "TLE_LINE2": "2 58056  43.0030 313.6274 0001972 287.1256  72.9371 15.02556696115722",
    "COMMENT": "Grouped by shell and plane from TLE"
  },
  {
    "OBJECT_NAME": "STARLINK-30541",
    "OBJECT_ID": "23158G",
    "EPOCH": "2025-11-11T01:13:27.791904",
    "MEAN_MOTION": 15.02537958,
    "ECCENTRICITY": 0.0001052,
    "INCLINATION": 43.0039,
    "RA_OF_ASC_NODE": 315.0993,
    "ARG_OF_PERICENTER": 274.1709,
    "MEAN_ANOMALY": 85.9014,
    "EPHEMERIS_TYPE": 0,
    "CLASSIFICATION_TYPE": "U",
    "NORAD_CAT_ID": 58057,
    "ELEMENT_SET_NO": 999,
    "REV_AT_EPOCH": 11568,
    "BSTAR": 8.2494e-05,
    "MEAN_MOTION_DOT": 9.11e-06,
    "MEAN_MOTION_DDOT": 0.0,
    "TLE_LINE1": "1 58057U 23158G   25315.05101611  .00000911  00000+0  82494-4 0  9996",
    "TLE_LINE2": "2 58057  43.0039 315.0993 0001052 274.1709  85.9014 15.02537958115687",
    "COMMENT": "Grouped by shell and plane from TLE"
  },
  {
    "OBJECT_NAME": "STARLINK-30573",
    "OBJECT_ID": "23158H",
    "EPOCH": "2025-11-11T07:26:47.556096",
    "MEAN_MOTION": 15.02528923,
    "ECCENTRICITY": 0.0001493,
    "INCLINATION": 43.003,
    "RA_OF_ASC_NODE": 313.6024,
    "ARG_OF_PERICENTER": 280.0632,
    "MEAN_ANOMALY": 80.0042,
    "EPHEMERIS_TYPE": 0,
    "CLASSIFICATION_TYPE": "U",
    "NORAD_CAT_ID": 58058,
    "ELEMENT_SET_NO": 999,
    "REV_AT_EPOCH": 11572,
    "BSTAR": 3.3061e-05,
    "MEAN_MOTION_DOT": 2.43e-06,
    "MEAN_MOTION_DDOT": 0.0,
    "TLE_LINE1": "1 58058U 23158H   25315.31027264  .00000243  00000+0  33061-4 0  9991",
    "TLE_LINE2": "2 58058  43.0030 313.6024 0001493 280.0632  80.0042 15.02528923115722",
    "COMMENT": "Grouped by shell and plane from TLE"
  },
  {
    "OBJECT_NAME": "STARLINK-30582",
    "OBJECT_ID": "23158J",
    "EPOCH": "2025-11-11T07:12:24.372576",
    "MEAN_MOTION": 15.0253321,
    "ECCENTRICITY": 0.0001341,
    "INCLINATION": 43.0056,
    "RA_OF_ASC_NODE": 313.531,
    "ARG_OF_PERICENTER": 272.3245,
    "MEAN_ANOMALY": 87.7444,
    "EPHEMERIS_TYPE": 0,
    "CLASSIFICATION_TYPE": "U",
    "NORAD_CAT_ID": 58059,
    "ELEMENT_SET_NO": 999,
    "REV_AT_EPOCH": 11572,
    "BSTAR": 1.2469e-05,
    "MEAN_MOTION_DOT": -3.5e-07,
    "MEAN_MOTION_DDOT": 0.0,
    "TLE_LINE1": "1 58059U 23158J   25315.30028209 -.00000035  00000+0  12469-4 0  9990",
    "TLE_LINE2": "2 58059  43.0056 313.5310 0001341 272.3245  87.7444 15.02533210115729",
    "COMMENT": "Grouped by shell and plane from TLE"
  },
  {
    "OBJECT_NAME": "STARLINK-30558",
    "OBJECT_ID": "23158K",
    "EPOCH": "2025-11-11T06:34:11.655264",
    "MEAN_MOTION": 15.02547844,
    "ECCENTRICITY": 0.000154,
    "INCLINATION": 43.0063,
    "RA_OF_ASC_NODE": 314.1755,
    "ARG_OF_PERICENTER": 268.7455,
    "MEAN_ANOMALY": 91.3211,
    "EPHEMERIS_TYPE": 0,
    "CLASSIFICATION_TYPE": "U",
    "NORAD_CAT_ID": 58060,
    "ELEMENT_SET_NO": 999,
    "REV_AT_EPOCH": 11571,
    "BSTAR": 0.00012395,
    "MEAN_MOTION_DOT": 1.471e-05,
    "MEAN_MOTION_DDOT": 0.0,
    "TLE_LINE1": "1 58060U 23158K   25315.27374601  .00001471  00000+0  12395-3 0  9999",
    "TLE_LINE2": "2 58060  43.0063 314.1755 0001540 268.7455  91.3211 15.02547844115712",
    "COMMENT": "Grouped by shell and plane from TLE"
  },
  {
    "OBJECT_NAME": "STARLINK-30588",
    "OBJECT_ID": "23158M",
    "EPOCH": "2025-11-11T07:02:48.580512",
    "MEAN_MOTION": 15.02539287,
    "ECCENTRICITY": 0.000138,
    "INCLINATION": 43.0063,
    "RA_OF_ASC_NODE": 313.4791,
    "ARG_OF_PERICENTER": 275.2961,
    "MEAN_ANOMALY": 84.7724,
    "EPHEMERIS_TYPE": 0,
    "CLASSIFICATION_TYPE": "U",
    "NORAD_CAT_ID": 58062,
    "ELEMENT_SET_NO": 999,
    "REV_AT_EPOCH": 11572,
    "BSTAR": 0.00014584,
    "MEAN_MOTION_DOT": 1.767e-05,
    "MEAN_MOTION_DDOT": 0.0,
    "TLE_LINE1": "1 58062U 23158M   25315.29361783  .00001767  00000+0  14584-3 0  9990",
    "TLE_LINE2": "2 58062  43.0063 313.4791 0001380 275.2961  84.7724 15.02539287115721",
    "COMMENT": "Grouped by shell and plane from TLE"
  },
  {
    "OBJECT_NAME": "STARLINK-30585",
    "OBJECT_ID": "23158N",
    "EPOCH": "2025-11-11T06:48:26.869248",
    "MEAN_MOTION": 15.02523437,
    "ECCENTRICITY": 9.71e-05,
    "INCLINATION": 43.0032,
    "RA_OF_ASC_NODE": 313.4057,
    "ARG_OF_PERICENTER": 275.1237,
    "MEAN_ANOMALY": 84.9495,
    "EPHEMERIS_TYPE": 0,
    "CLASSIFICATION_TYPE": "U",
    "NORAD_CAT_ID": 58063,
    "ELEMENT_SET_NO": 999,
    "REV_AT_EPOCH": 11572,
    "BSTAR": 0.0,
    "MEAN_MOTION_DOT": -2.932e-05,
    "MEAN_MOTION_DDOT": 0.0,
    "TLE_LINE1": "1 58063U 23158N   25315.28364432 -.00002932  00000+0 -20212-3 0  9996",
    "TLE_LINE2": "2 58063  43.0032 313.4057 0000971 275.1237  84.9495 15.02523437115720",
    "COMMENT": "Grouped by shell and plane from TLE"
  }
]